[
    {
        "Altitude(m)": 567349.5387387875,
        "Argument of Periapsis(deg)": 0.013245982221427002,
        "Eccentricity": 0.0,
        "Inclination(deg)": 53.0,
        "Latitude(deg)": -41.98942341500104,
        "Longitude(deg)": 85.84235341636564,
        "Mean Anomaly(deg)": -123.45311426484474,
        "RAAN(deg)": 324.9802867370561,
        "Satellite Name": "Starlink Shell 1 1443",
        "Satellite Number": 1443,
        "Semi-Major Axis(m)": 6931778.249405717,
        "Time(s)": 380
    },
    {
        "Altitude(m)": 567501.2208115943,
        "Argument of Periapsis(deg)": 0.013594560700938237,
        "Eccentricity": 0.0,
        "Inclination(deg)": 53.0,
        "Latitude(deg)": -42.35675943159423,
        "Longitude(deg)": 86.48273787998946,
        "Mean Anomaly(deg)": -122.82628306128807,
        "RAAN(deg)": 324.97976796697856,
        "Satellite Name": "Starlink Shell 1 1443",
        "Satellite Number": 1443,
        "Semi-Major Axis(m)": 6931778.249405717,
        "Time(s)": 390
    },
    {
        "Altitude(m)": 567651.1421863372,
        "Argument of Periapsis(deg)": 0.013943139180449475,
        "Eccentricity": 0.0,
        "Inclination(deg)": 53.0,
        "Latitude(deg)": -42.719965230290974,
        "Longitude(deg)": 87.13104170812186,
        "Mean Anomaly(deg)": -122.1994518577314,
        "RAAN(deg)": 324.97924919690104,
        "Satellite Name": "Starlink Shell 1 1443",
        "Satellite Number": 1443,
        "Semi-Major Axis(m)": 6931778.249405717,
        "Time(s)": 400
    },
    {
        "Altitude(m)": 567799.2440889133,
        "Argument of Periapsis(deg)": 0.014291717659960712,
        "Eccentricity": 0.0,
        "Inclination(deg)": 53.0,
        "Latitude(deg)": -43.078941307803284,
        "Longitude(deg)": 87.78736768757761,
        "Mean Anomaly(deg)": -121.57262065417467,
        "RAAN(deg)": 324.97873042682363,
        "Satellite Name": "Starlink Shell 1 1443",
        "Satellite Number": 1443,
        "Semi-Major Axis(m)": 6931778.249405717,
        "Time(s)": 410
    },
    {
        "Altitude(m)": 567945.4684087719,
        "Argument of Periapsis(deg)": 0.014640296139471948,
        "Eccentricity": 0.0,
        "Inclination(deg)": 53.0,
        "Latitude(deg)": -43.43358635846657,
        "Longitude(deg)": 88.451814830655,
        "Mean Anomaly(deg)": -120.94578945061788,
        "RAAN(deg)": 324.97821165674617,
        "Satellite Name": "Starlink Shell 1 1443",
        "Satellite Number": 1443,
        "Semi-Major Axis(m)": 6931778.249405717,
        "Time(s)": 420
    },
    {
        "Altitude(m)": 568089.7577245691,
        "Argument of Periapsis(deg)": 0.014988874618983185,
        "Eccentricity": 0.0,
        "Inclination(deg)": 53.0,
        "Latitude(deg)": -43.78379729449778,
        "Longitude(deg)": 89.12447850890509,
        "Mean Anomaly(deg)": -120.31895824706122,
        "RAAN(deg)": 324.97769288666865,
        "Satellite Name": "Starlink Shell 1 1443",
        "Satellite Number": 1443,
        "Semi-Major Axis(m)": 6931778.249405717,
        "Time(s)": 430
    },
    {
        "Altitude(m)": 568232.0553294729,
        "Argument of Periapsis(deg)": 0.015337453098494424,
        "Eccentricity": 0.0,
        "Inclination(deg)": 53.0,
        "Latitude(deg)": -44.12946927207028,
        "Longitude(deg)": 89.80545056863085,
        "Mean Anomaly(deg)": -119.69212704350458,
        "RAAN(deg)": 324.9771741165912,
        "Satellite Name": "Starlink Shell 1 1443",
        "Satellite Number": 1443,
        "Semi-Major Axis(m)": 6931778.249405717,
        "Time(s)": 440
    },
    {
        "Altitude(m)": 568372.3052561545,
        "Argument of Periapsis(deg)": 0.01568603157800566,
        "Eccentricity": 0.0,
        "Inclination(deg)": 53.0,
        "Latitude(deg)": -44.47049572360907,
        "Longitude(deg)": 90.49481791537688,
        "Mean Anomaly(deg)": -119.06529583994782,
        "RAAN(deg)": 324.9766553465137,
        "Satellite Name": "Starlink Shell 1 1443",
        "Satellite Number": 1443,
        "Semi-Major Axis(m)": 6931778.249405717,
        "Time(s)": 450
    },
    {
        "Altitude(m)": 568510.4523014309,
        "Argument of Periapsis(deg)": 0.0160346100575169,
        "Eccentricity": 0.0,
        "Inclination(deg)": 53.0,
        "Latitude(deg)": -44.80676839671773,
        "Longitude(deg)": 91.19266259341977,
        "Mean Anomaly(deg)": -118.43846463639106,
        "RAAN(deg)": 324.97613657643626,
        "Satellite Name": "Starlink Shell 1 1443",
        "Satellite Number": 1443,
        "Semi-Major Axis(m)": 6931778.249405717,
        "Time(s)": 460
    },
    {
        "Altitude(m)": 568646.4420505669,
        "Argument of Periapsis(deg)": 0.016383188537028134,
        "Eccentricity": 0.0,
        "Inclination(deg)": 53.0,
        "Latitude(deg)": -45.13817740015279,
        "Longitude(deg)": 91.89906184781056,
        "Mean Anomaly(deg)": -117.81163343283441,
        "RAAN(deg)": 324.9756178063588,
        "Satellite Name": "Starlink Shell 1 1443",
        "Satellite Number": 1443,
        "Semi-Major Axis(m)": 6931778.249405717,
        "Time(s)": 470
    },
    {
        "Altitude(m)": 568780.2209011954,
        "Argument of Periapsis(deg)": 0.01673176701653937,
        "Eccentricity": 0.0,
        "Inclination(deg)": 53.0,
        "Latitude(deg)": -45.46461125726226,
        "Longitude(deg)": 92.61408665668854,
        "Mean Anomaly(deg)": -117.18480222927774,
        "RAAN(deg)": 324.9750990362813,
        "Satellite Name": "Starlink Shell 1 1443",
        "Satellite Number": 1443,
        "Semi-Major Axis(m)": 6931778.249405717,
        "Time(s)": 480
    },
    {
        "Altitude(m)": 568911.7360868773,
        "Argument of Periapsis(deg)": 0.017080345496050607,
        "Eccentricity": 0.0,
        "Inclination(deg)": 53.0,
        "Latitude(deg)": -45.785956967303285,
        "Longitude(deg)": 93.33780176038437,
        "Mean Anomaly(deg)": -116.55797102572097,
        "RAAN(deg)": 324.9745802662038,
        "Satellite Name": "Starlink Shell 1 1443",
        "Satellite Number": 1443,
        "Semi-Major Axis(m)": 6931778.249405717,
        "Time(s)": 490
    },
    {
        "Altitude(m)": 569040.9357002873,
        "Argument of Periapsis(deg)": 0.017428923975561842,
        "Eccentricity": 0.0,
        "Inclination(deg)": 53.0,
        "Latitude(deg)": -46.10210007504845,
        "Longitude(deg)": 94.0702656754142,
        "Mean Anomaly(deg)": -115.93113982216424,
        "RAAN(deg)": 324.9740614961264,
        "Satellite Name": "Starlink Shell 1 1443",
        "Satellite Number": 1443,
        "Semi-Major Axis(m)": 6931778.249405717,
        "Time(s)": 500
    },
    {
        "Altitude(m)": 569167.7687159877,
        "Argument of Periapsis(deg)": 0.01777750245507308,
        "Eccentricity": 0.0,
        "Inclination(deg)": 53.0,
        "Latitude(deg)": -46.41292474908324,
        "Longitude(deg)": 94.81152918169224,
        "Mean Anomaly(deg)": -115.30430861860758,
        "RAAN(deg)": 324.9735427260489,
        "Satellite Name": "Starlink Shell 1 1443",
        "Satellite Number": 1443,
        "Semi-Major Axis(m)": 6931778.249405717,
        "Time(s)": 510
    },
    {
        "Altitude(m)": 569292.1850128213,
        "Argument of Periapsis(deg)": 0.018126080934584315,
        "Eccentricity": 0.0,
        "Inclination(deg)": 53.0,
        "Latitude(deg)": -46.718313869179056,
        "Longitude(deg)": 95.56163531012044,
        "Mean Anomaly(deg)": -114.67747741505076,
        "RAAN(deg)": 324.97302395597137,
        "Satellite Name": "Starlink Shell 1 1443",
        "Satellite Number": 1443,
        "Semi-Major Axis(m)": 6931778.249405717,
        "Time(s)": 520
    },
    {
        "Altitude(m)": 569414.1353958797,
        "Argument of Periapsis(deg)": 0.018474659414095554,
        "Eccentricity": 0.0,
        "Inclination(deg)": 53.0,
        "Latitude(deg)": -47.01814912311088,
        "Longitude(deg)": 96.32061931935455,
        "Mean Anomaly(deg)": -114.05064621149405,
        "RAAN(deg)": 324.97250518589397,
        "Satellite Name": "Starlink Shell 1 1443",
        "Satellite Number": 1443,
        "Semi-Major Axis(m)": 6931778.249405717,
        "Time(s)": 530
    },
    {
        "Altitude(m)": 569533.571618065,
        "Argument of Periapsis(deg)": 0.018823237893606792,
        "Eccentricity": 0.0,
        "Inclination(deg)": 53.0,
        "Latitude(deg)": -47.312311113264364,
        "Longitude(deg)": 97.08850715080489,
        "Mean Anomaly(deg)": -113.42381500793739,
        "RAAN(deg)": 324.9719864158165,
        "Satellite Name": "Starlink Shell 1 1443",
        "Satellite Number": 1443,
        "Semi-Major Axis(m)": 6931778.249405717,
        "Time(s)": 540
    },
    {
        "Altitude(m)": 569650.4464012131,
        "Argument of Periapsis(deg)": 0.019171816373118027,
        "Eccentricity": 0.0,
        "Inclination(deg)": 53.0,
        "Latitude(deg)": -47.600679473344975,
        "Longitude(deg)": 97.86531538980488,
        "Mean Anomaly(deg)": -112.79698380438072,
        "RAAN(deg)": 324.971467645739,
        "Satellite Name": "Starlink Shell 1 1443",
        "Satellite Number": 1443,
        "Semi-Major Axis(m)": 6931778.249405717,
        "Time(s)": 550
    },
    {
        "Altitude(m)": 569764.7134567803,
        "Argument of Periapsis(deg)": 0.019520394852629266,
        "Eccentricity": 0.0,
        "Inclination(deg)": 53.0,
        "Latitude(deg)": -47.883132995469,
        "Longitude(deg)": 98.65105122255322,
        "Mean Anomaly(deg)": -112.170152600824,
        "RAAN(deg)": 324.9709488756615,
        "Satellite Name": "Starlink Shell 1 1443",
        "Satellite Number": 1443,
        "Semi-Major Axis(m)": 6931778.249405717,
        "Time(s)": 560
    }
]